{
 "generated_at": "2026-06-11T23:47:41Z",
 "sources": [
  {
   "name": "CelesTrak",
   "url": "https://celestrak.org/NORAD/elements/",
   "license": "frei verfügbar; Attribution. Ursprünglich USSPACECOM/Space-Track."
  },
  {
   "name": "GCAT (J. McDowell, planet4589.org)",
   "url": "https://planet4589.org/space/gcat/",
   "license": "CC-BY 4.0"
  }
 ],
 "satellites": [
  {
   "norad": 39766,
   "name": "ALOS-2",
   "intl": "2014-029A",
   "group": "resource",
   "gcat": {
    "class": "C",
    "category": "IMG",
    "owner": "JAXA",
    "state": "J"
   },
   "omm": {
    "OBJECT_NAME": "ALOS-2",
    "OBJECT_ID": "2014-029A",
    "EPOCH": "2026-06-11T17:29:06.192960",
    "MEAN_MOTION": 14.79472518,
    "ECCENTRICITY": 0.0001638,
    "INCLINATION": 97.921,
    "RA_OF_ASC_NODE": 259.9704,
    "ARG_OF_PERICENTER": 89.5715,
    "MEAN_ANOMALY": 270.5684,
    "EPHEMERIS_TYPE": 0,
    "CLASSIFICATION_TYPE": "U",
    "NORAD_CAT_ID": 39766,
    "ELEMENT_SET_NO": 999,
    "REV_AT_EPOCH": 65077,
    "BSTAR": 0.00016818,
    "MEAN_MOTION_DOT": 0.00001205,
    "MEAN_MOTION_DDOT": 0
   }
  },
  {
   "norad": 60182,
   "name": "ALOS-4 (DAICHI-4)",
   "intl": "2024-123A",
   "group": "resource",
   "gcat": {
    "class": "C",
    "category": "IMG",
    "owner": "JAXA",
    "state": "J"
   },
   "omm": {
    "OBJECT_NAME": "ALOS-4 (DAICHI-4)",
    "OBJECT_ID": "2024-123A",
    "EPOCH": "2026-06-11T16:19:33.521376",
    "MEAN_MOTION": 14.79476402,
    "ECCENTRICITY": 0.0001632,
    "INCLINATION": 97.9243,
    "RA_OF_ASC_NODE": 259.9312,
    "ARG_OF_PERICENTER": 96.8219,
    "MEAN_ANOMALY": 263.3178,
    "EPHEMERIS_TYPE": 0,
    "CLASSIFICATION_TYPE": "U",
    "NORAD_CAT_ID": 60182,
    "ELEMENT_SET_NO": 999,
    "REV_AT_EPOCH": 10506,
    "BSTAR": 0.00017939,
    "MEAN_MOTION_DOT": 0.00001289,
    "MEAN_MOTION_DDOT": 0
   }
  },
  {
   "norad": 41785,
   "name": "ALSAT-1B",
   "intl": "2016-059C",
   "group": "resource",
   "gcat": {
    "class": "C",
    "category": "IMG",
    "owner": "ASAL",
    "state": "DZ"
   },
   "omm": {
    "OBJECT_NAME": "ALSAT-1B",
    "OBJECT_ID": "2016-059C",
    "EPOCH": "2026-06-11T16:00:44.172288",
    "MEAN_MOTION": 14.72270759,
    "ECCENTRICITY": 0.0007805,
    "INCLINATION": 97.7755,
    "RA_OF_ASC_NODE": 171.6691,
    "ARG_OF_PERICENTER": 240.5989,
    "MEAN_ANOMALY": 119.444,
    "EPHEMERIS_TYPE": 0,
    "CLASSIFICATION_TYPE": "U",
    "NORAD_CAT_ID": 41785,
    "ELEMENT_SET_NO": 999,
    "REV_AT_EPOCH": 51976,
    "BSTAR": 0.000064595,
    "MEAN_MOTION_DOT": 0.00000361,
    "MEAN_MOTION_DDOT": 0
   }
  },
  {
   "norad": 27424,
   "name": "AQUA",
   "intl": "2002-022A",
   "group": "resource",
   "gcat": {
    "class": "C",
    "category": "IMG",
    "owner": "GSFC",
    "state": "US"
   },
   "omm": {
    "OBJECT_NAME": "AQUA",
    "OBJECT_ID": "2002-022A",
    "EPOCH": "2026-06-11T17:08:59.096832",
    "MEAN_MOTION": 14.62149926,
    "ECCENTRICITY": 0.0001323,
    "INCLINATION": 98.4275,
    "RA_OF_ASC_NODE": 131.8881,
    "ARG_OF_PERICENTER": 53.1553,
    "MEAN_ANOMALY": 358.2903,
    "EPHEMERIS_TYPE": 0,
    "CLASSIFICATION_TYPE": "U",
    "NORAD_CAT_ID": 27424,
    "ELEMENT_SET_NO": 999,
    "REV_AT_EPOCH": 28247,
    "BSTAR": 0.00014483,
    "MEAN_MOTION_DOT": 0.00000679,
    "MEAN_MOTION_DDOT": 0
   }
  },
  {
   "norad": 29268,
   "name": "ARIRANG-2 (KOMPSAT-2)",
   "intl": "2006-031A",
   "group": "resource",
   "gcat": {
    "class": "C",
    "category": "IMG",
    "owner": "KARI",
    "state": "KR"
   },
   "omm": {
    "OBJECT_NAME": "ARIRANG-2 (KOMPSAT-2)",
    "OBJECT_ID": "2006-031A",
    "EPOCH": "2026-06-11T15:04:50.990880",
    "MEAN_MOTION": 14.64656121,
    "ECCENTRICITY": 0.00159374,
    "INCLINATION": 97.8311,
    "RA_OF_ASC_NODE": 347.3444,
    "ARG_OF_PERICENTER": 90.6429,
    "MEAN_ANOMALY": 0.9235,
    "EPHEMERIS_TYPE": 0,
    "CLASSIFICATION_TYPE": "U",
    "NORAD_CAT_ID": 29268,
    "ELEMENT_SET_NO": 999,
    "REV_AT_EPOCH": 6066,
    "BSTAR": 0.000027710219,
    "MEAN_MOTION_DOT": 0.00000103,
    "MEAN_MOTION_DDOT": 0
   }
  },
  {
   "norad": 38338,
   "name": "ARIRANG-3 (KOMPSAT-3)",
   "intl": "2012-025B",
   "group": "resource",
   "gcat": {
    "class": "C",
    "category": "IMG",
    "owner": "KARI",
    "state": "KR"
   },
   "omm": {
    "OBJECT_NAME": "ARIRANG-3 (KOMPSAT-3)",
    "OBJECT_ID": "2012-025B",
    "EPOCH": "2026-06-11T16:40:57.984384",
    "MEAN_MOTION": 14.62201378,
    "ECCENTRICITY": 0.0006463,
    "INCLINATION": 98.1175,
    "RA_OF_ASC_NODE": 120.2499,
    "ARG_OF_PERICENTER": 123.2999,
    "MEAN_ANOMALY": 236.8822,
    "EPHEMERIS_TYPE": 0,
    "CLASSIFICATION_TYPE": "U",
    "NORAD_CAT_ID": 38338,
    "ELEMENT_SET_NO": 999,
    "REV_AT_EPOCH": 75054,
    "BSTAR": 0.000081032,
    "MEAN_MOTION_DOT": 0.00000362,
    "MEAN_MOTION_DDOT": 0
   }
  },
  {
   "norad": 39227,
   "name": "ARIRANG-5 (KOMPSAT-5)",
   "intl": "2013-042A",
   "group": "resource",
   "gcat": {
    "class": "C",
    "category": "IMG-R",
    "owner": "KARI",
    "state": "KR"
   },
   "omm": {
    "OBJECT_NAME": "ARIRANG-5 (KOMPSAT-5)",
    "OBJECT_ID": "2013-042A",
    "EPOCH": "2026-06-11T17:05:43.729152",
    "MEAN_MOTION": 15.04477821,
    "ECCENTRICITY": 0.000483,
    "INCLINATION": 97.6217,
    "RA_OF_ASC_NODE": 349.4905,
    "ARG_OF_PERICENTER": 135.0499,
    "MEAN_ANOMALY": 225.1119,
    "EPHEMERIS_TYPE": 0,
    "CLASSIFICATION_TYPE": "U",
    "NORAD_CAT_ID": 39227,
    "ELEMENT_SET_NO": 999,
    "REV_AT_EPOCH": 70303,
    "BSTAR": 0.00011054,
    "MEAN_MOTION_DOT": 0.00001486,
    "MEAN_MOTION_DDOT": 0
   }
  },
  {
   "norad": 47719,
   "name": "ARKTIKA-M 1",
   "intl": "2021-016A",
   "group": "weather",
   "gcat": {
    "class": "C",
    "category": "MET",
    "owner": "ROSK",
    "state": "RU"
   },
   "omm": {
    "OBJECT_NAME": "ARKTIKA-M 1",
    "OBJECT_ID": "2021-016A",
    "EPOCH": "2026-06-09T12:22:37.726752",
    "MEAN_MOTION": 2.00625436,
    "ECCENTRICITY": 0.7285674,
    "INCLINATION": 63.2417,
    "RA_OF_ASC_NODE": 58.7595,
    "ARG_OF_PERICENTER": 269.8905,
    "MEAN_ANOMALY": 14.6803,
    "EPHEMERIS_TYPE": 0,
    "CLASSIFICATION_TYPE": "U",
    "NORAD_CAT_ID": 47719,
    "ELEMENT_SET_NO": 999,
    "REV_AT_EPOCH": 3863,
    "BSTAR": 0,
    "MEAN_MOTION_DOT": -0.00000149,
    "MEAN_MOTION_DDOT": 0
   }
  },
  {
   "norad": 58584,
   "name": "ARKTIKA-M 2",
   "intl": "2023-198A",
   "group": "weather",
   "gcat": {
    "class": "C",
    "category": "MET",
    "owner": "ROSK",
    "state": "RU"
   },
   "omm": {
    "OBJECT_NAME": "ARKTIKA-M 2",
    "OBJECT_ID": "2023-198A",
    "EPOCH": "2026-06-09T18:48:45.592992",
    "MEAN_MOTION": 2.00606537,
    "ECCENTRICITY": 0.69004015,
    "INCLINATION": 63.2205,
    "RA_OF_ASC_NODE": 155.1874,
    "ARG_OF_PERICENTER": 267.4353,
    "MEAN_ANOMALY": 18.7899,
    "EPHEMERIS_TYPE": 0,
    "CLASSIFICATION_TYPE": "U",
    "NORAD_CAT_ID": 58584,
    "ELEMENT_SET_NO": 999,
    "REV_AT_EPOCH": 1817,
    "BSTAR": 0,
    "MEAN_MOTION_DOT": 0.00000212,
    "MEAN_MOTION_DDOT": 0
   }
  },
  {
   "norad": 40298,
   "name": "ASNARO",
   "intl": "2014-070A",
   "group": "resource",
   "gcat": {
    "class": null,
    "category": "IMG",
    "owner": "JSS",
    "state": "J"
   },
   "omm": {
    "OBJECT_NAME": "ASNARO",
    "OBJECT_ID": "2014-070A",
    "EPOCH": "2026-06-11T16:38:03.636960",
    "MEAN_MOTION": 15.19355353,
    "ECCENTRICITY": 0.000498,
    "INCLINATION": 97.3451,
    "RA_OF_ASC_NODE": 238.957,
    "ARG_OF_PERICENTER": 183.6345,
    "MEAN_ANOMALY": 176.4855,
    "EPHEMERIS_TYPE": 0,
    "CLASSIFICATION_TYPE": "U",
    "NORAD_CAT_ID": 40298,
    "ELEMENT_SET_NO": 999,
    "REV_AT_EPOCH": 64317,
    "BSTAR": 0.00044251,
    "MEAN_MOTION_DOT": 0.00009296,
    "MEAN_MOTION_DDOT": 0
   }
  }
 ]
}
